{
  "generated_at": "2026-07-13T07:11:34Z",
  "source": "CelesTrak SATCAT gp.php?GROUP=active (HEAD cache, no fetch)",
  "schema_version": "1.0",
  "records": [
    {
      "name": "DMSP 5D-3 F16 (USA 172)",
      "norad_id": 28054,
      "intl_designator": "03048-261",
      "line1": "1 28054U 03048A   26186.42269895  .00000040  00000+0  44662-4 0  9991",
      "line2": "2 28054  98.9886 210.3712 0008210  95.0172   7.2314 14.14484754172065",
      "category": "weather"
    },
    {
      "name": "METEOSAT-9 (MSG-2)",
      "norad_id": 28912,
      "intl_designator": "05049-261",
      "line1": "1 28912U 05049B   26185.73031617  .00000133  00000+0  00000+0 0  9995",
      "line2": "2 28912   9.3983  53.9918 0002388   0.4955 176.8994  1.00268028  7171",
      "category": "weather"
    },
    {
      "name": "DMSP 5D-3 F17 (USA 191)",
      "norad_id": 29522,
      "intl_designator": "06050-261",
      "line1": "1 29522U 06050A   26186.48390475  .00000075  00000+0  61046-4 0  9996",
      "line2": "2 29522  98.7381 192.6797 0010302  10.6814 349.4577 14.14995663 15019",
      "category": "weather"
    },
    {
      "name": "FENGYUN 3A",
      "norad_id": 32958,
      "intl_designator": "08026-261",
      "line1": "1 32958U 08026A   26186.30254631  .00000121  00000+0  77931-4 0  9994",
      "line2": "2 32958  98.6885 126.7971 0009875  77.2748 282.9532 14.19575181937978",
      "category": "weather"
    },
    {
      "name": "GOES 14",
      "norad_id": 35491,
      "intl_designator": "09033-261",
      "line1": "1 35491U 09033A   26186.53137925 -.00000332  00000+0  00000+0 0  9992",
      "line2": "2 35491   1.7341  82.8289 0002101  31.1570 131.8513  1.00103643  6778",
      "category": "weather"
    },
    {
      "name": "DMSP 5D-3 F18 (USA 210)",
      "norad_id": 35951,
      "intl_designator": "09057-261",
      "line1": "1 35951U 09057A   26186.59788986  .00000275  00000+0  16547-3 0  9996",
      "line2": "2 35951  98.9047 167.3277 0010661 192.8844 167.2058 14.14907412862193",
      "category": "weather"
    },
    {
      "name": "EWS-G2 (GOES 15)",
      "norad_id": 36411,
      "intl_designator": "10008-261",
      "line1": "1 36411U 10008A   26186.51801439  .00000034  00000+0  00000+0 0  9993",
      "line2": "2 36411   1.3248  82.5972 0005350  48.9751  41.8629  1.00268286 59822",
      "category": "weather"
    },
    {
      "name": "COMS 1",
      "norad_id": 36744,
      "intl_designator": "10032-261",
      "line1": "1 36744U 10032A   26185.86445056 -.00000135  00000+0  00000+0 0  9998",
      "line2": "2 36744   4.8475  75.1472 0011640  14.1480 147.8491  0.99169370 51262",
      "category": "weather"
    },
    {
      "name": "FENGYUN 3B",
      "norad_id": 37214,
      "intl_designator": "10059-261",
      "line1": "1 37214U 10059A   26186.64129045  .00000563  00000+0  31422-3 0  9994",
      "line2": "2 37214  98.9605 232.7334 0022846 132.5681  37.5405 14.14847618810038",
      "category": "weather"
    },
    {
      "name": "SUOMI NPP",
      "norad_id": 37849,
      "intl_designator": "11061-261",
      "line1": "1 37849U 11061A   26186.59641194  .00000097  00000+0  67039-4 0  9996",
      "line2": "2 37849  98.7955 127.3470 0000591 289.1282  70.9830 14.19521299761056",
      "category": "weather"
    },
    {
      "name": "METEOSAT-10 (MSG-3)",
      "norad_id": 38552,
      "intl_designator": "12035-261",
      "line1": "1 38552U 12035B   26186.29157634  .00000005  00000+0  00000+0 0  9997",
      "line2": "2 38552   4.7115  60.9295 0001423  17.8763 309.5534  1.00269660 51034",
      "category": "weather"
    },
    {
      "name": "METOP-B",
      "norad_id": 38771,
      "intl_designator": "12049-261",
      "line1": "1 38771U 12049A   26186.35048295  .00000145  00000+0  85958-4 0  9999",
      "line2": "2 38771  98.6494 237.4865 0001187 314.6634  45.4447 14.21444651715842",
      "category": "weather"
    },
    {
      "name": "INSAT-3D",
      "norad_id": 39216,
      "intl_designator": "13038-261",
      "line1": "1 39216U 13038B   26183.85162303 -.00000329  00000+0  00000+0 0  9997",
      "line2": "2 39216   1.9642  82.3574 0001056  15.1644 259.4386  1.00268722 47238",
      "category": "weather"
    },
    {
      "name": "FENGYUN 3C",
      "norad_id": 39260,
      "intl_designator": "13052-261",
      "line1": "1 39260U 13052A   26186.63091449  .00000076  00000+0  59849-4 0  9991",
      "line2": "2 39260  98.4998 159.6597 0014146 334.9488  25.0999 14.15759195661178",
      "category": "weather"
    },
    {
      "name": "METEOR-M 2",
      "norad_id": 40069,
      "intl_designator": "14037-261",
      "line1": "1 40069U 14037A   26186.65814679 -.00000101  00000+0 -26857-4 0  9998",
      "line2": "2 40069  98.5128 161.7432 0005768 356.0782   4.0349 14.21466141621947",
      "category": "weather"
    },
    {
      "name": "HIMAWARI-8",
      "norad_id": 40267,
      "intl_designator": "14060-261",
      "line1": "1 40267U 14060A   26186.59698866 -.00000262  00000+0  00000+0 0  9999",
      "line2": "2 40267   0.0175  34.0764 0000944  84.3005 160.8038  1.00270538 42946",
      "category": "weather"
    },
    {
      "name": "FENGYUN 2G",
      "norad_id": 40367,
      "intl_designator": "14090-261",
      "line1": "1 40367U 14090A   26186.59640071 -.00000289  00000+0  00000+0 0  9997",
      "line2": "2 40367   5.6825  72.5975 0003703 150.4392  14.7589  1.00265165 42185",
      "category": "weather"
    },
    {
      "name": "METEOSAT-11 (MSG-4)",
      "norad_id": 40732,
      "intl_designator": "15034-261",
      "line1": "1 40732U 15034A   26186.57850515  .00000074  00000+0  00000+0 0  9997",
      "line2": "2 40732   3.2464  70.9958 0002249 350.1849  79.9413  1.00268848  7403",
      "category": "weather"
    },
    {
      "name": "ELEKTRO-L 2",
      "norad_id": 41105,
      "intl_designator": "15074-261",
      "line1": "1 41105U 15074A   26185.93224534 -.00000107  00000+0  00000+0 0  9999",
      "line2": "2 41105   6.7363  70.3059 0000617 256.6108 277.0927  1.00273703 38686",
      "category": "weather"
    },
    {
      "name": "SENTINEL-3A",
      "norad_id": 41335,
      "intl_designator": "16011-261",
      "line1": "1 41335U 16011A   26186.38020816  .00000159  00000+0  83580-4 0  9998",
      "line2": "2 41335  98.6241 253.5019 0001424  93.3626 266.7718 14.26738070540658",
      "category": "weather"
    },
    {
      "name": "INSAT-3DR",
      "norad_id": 41752,
      "intl_designator": "16054-261",
      "line1": "1 41752U 16054A   26186.59137403 -.00000063  00000+0  00000+0 0  9998",
      "line2": "2 41752   0.0452  89.4624 0010312 181.7428 299.2673  1.00272516 36004",
      "category": "weather"
    },
    {
      "name": "HIMAWARI-9",
      "norad_id": 41836,
      "intl_designator": "16064-261",
      "line1": "1 41836U 16064A   26186.18169565 -.00000261  00000+0  00000+0 0  9991",
      "line2": "2 41836   0.0208 278.6772 0001336 226.6727 343.9982  1.00273443 35390",
      "category": "weather"
    },
    {
      "name": "GOES 16",
      "norad_id": 41866,
      "intl_designator": "16071-261",
      "line1": "1 41866U 16071A   26186.55855330 -.00000077  00000+0  00000+0 0  9990",
      "line2": "2 41866   0.3831  85.6725 0000512  53.9412 240.3346  1.00271784 35287",
      "category": "weather"
    },
    {
      "name": "FENGYUN 4A",
      "norad_id": 41882,
      "intl_designator": "16077-261",
      "line1": "1 41882U 16077A   26186.66087916 -.00000344  00000+0  00000+0 0  9990",
      "line2": "2 41882   2.3666  80.0843 0008007 157.8053  47.4517  1.00274232 35114",
      "category": "weather"
    },
    {
      "name": "CYGFM05",
      "norad_id": 41884,
      "intl_designator": "16078-261",
      "line1": "1 41884U 16078A   26186.25993499  .00035736  00000+0  46812-3 0  9997",
      "line2": "2 41884  34.9562 140.8434 0007805 306.2886  53.7117 15.57493813531574",
      "category": "weather"
    },
    {
      "name": "CYGFM04",
      "norad_id": 41885,
      "intl_designator": "16078-261",
      "line1": "1 41885U 16078B   26186.17310821  .00048320  00000+0  51978-3 0  9993",
      "line2": "2 41885  34.9320 108.1857 0006085 341.3726  18.6776 15.62590933531810",
      "category": "weather"
    },
    {
      "name": "CYGFM02",
      "norad_id": 41886,
      "intl_designator": "16078-261",
      "line1": "1 41886U 16078C   26186.20216586  .00057140  00000+0  54085-3 0  9993",
      "line2": "2 41886  34.9401 101.9852 0006919 345.4932  14.5595 15.65774539531999",
      "category": "weather"
    },
    {
      "name": "CYGFM01",
      "norad_id": 41887,
      "intl_designator": "16078-261",
      "line1": "1 41887U 16078D   26186.24061343  .00037427  00000+0  47730-3 0  9992",
      "line2": "2 41887  34.9394 141.8798 0007729 300.8681  59.1284 15.58197350531520",
      "category": "weather"
    },
    {
      "name": "CYGFM08",
      "norad_id": 41888,
      "intl_designator": "16078-261",
      "line1": "1 41888U 16078E   26186.23243052  .00043264  00000+0  49493-3 0  9995",
      "line2": "2 41888  34.9426 121.0275 0008177 331.2592  28.7682 15.61010948531798",
      "category": "weather"
    },
    {
      "name": "CYGFM07",
      "norad_id": 41890,
      "intl_designator": "16078-261",
      "line1": "1 41890U 16078G   26186.19042992  .00044677  00000+0  50921-3 0  9990",
      "line2": "2 41890  34.9443 109.6333 0006444 342.6067  17.4437 15.61116716531811",
      "category": "weather"
    },
    {
      "name": "CYGFM03",
      "norad_id": 41891,
      "intl_designator": "16078-261",
      "line1": "1 41891U 16078H   26186.22548500  .00044161  00000+0  50354-3 0  9999",
      "line2": "2 41891  34.9397 111.3315 0006439 329.4859  30.5491 15.61107669531796",
      "category": "weather"
    }
  ]
}